{
  "type": "FeatureCollection",
  "features": [
    {
      "type": "Feature",
      "properties": {
        "norad_id": 35165,
        "name": "FENGYUN 1C DEB",
        "group": "fengyun-1c-debris",
        "lat": -17.301205313420088,
        "lon": -94.49025213896094,
        "alt_km": 797.3853606143903,
        "timestamp": "2025-12-22T04:03:39.456996+00:00",
        "meta_object_name": "FENGYUN 1C DEB",
        "meta_object_id": "1999-025DMV",
        "meta_epoch": "2025-12-21T05:22:21.779616",
        "meta_mean_motion": 14.33882696,
        "meta_eccentricity": 0.0020007,
        "meta_inclination": 98.8797,
        "meta_ra_of_asc_node": 87.3309,
        "meta_arg_of_pericenter": 36.4089,
        "meta_mean_anomaly": 323.8451,
        "meta_ephemeris_type": 0,
        "meta_classification_type": "U",
        "meta_norad_cat_id": 35165,
        "meta_element_set_no": 999,
        "meta_rev_at_epoch": 89842,
        "meta_bstar": 0.0014686,
        "meta_mean_motion_dot": 4.055e-05,
        "meta_mean_motion_ddot": 0,
        "tle_line1": "1 35165U 99025DMV 25355.22386319  .00004055  00000+0  14686-2 0  9999",
        "tle_line2": "2 35165  98.8797  87.3309 0020007  36.4089 323.8451 14.33882696898426"
      },
      "geometry": {
        "type": "Point",
        "coordinates": [
          -94.49025213896094,
          -17.301205313420088
        ]
      }
    },
    {
      "type": "Feature",
      "properties": {
        "norad_id": 35167,
        "name": "FENGYUN 1C DEB",
        "group": "fengyun-1c-debris",
        "lat": -51.58770057248441,
        "lon": 158.3142396601468,
        "alt_km": 700.3515139624214,
        "timestamp": "2025-12-22T04:03:39.457007+00:00",
        "meta_object_name": "FENGYUN 1C DEB",
        "meta_object_id": "1999-025DMX",
        "meta_epoch": "2025-12-17T22:18:45.149472",
        "meta_mean_motion": 14.31170783,
        "meta_eccentricity": 0.02295949,
        "meta_inclination": 98.4497,
        "meta_ra_of_asc_node": 344.992,
        "meta_arg_of_pericenter": 188.7522,
        "meta_mean_anomaly": 170.9628,
        "meta_ephemeris_type": 0,
        "meta_classification_type": "U",
        "meta_norad_cat_id": 35167,
        "meta_element_set_no": 999,
        "meta_rev_at_epoch": 70094,
        "meta_bstar": 0.00031462149,
        "meta_mean_motion_dot": 1.059e-05,
        "meta_mean_motion_ddot": 0,
        "tle_line1": "1 35167U 99025DMX 25351.92968923  .00001059  00000+0  31462-3 0  9994",
        "tle_line2": "2 35167  98.4497 344.9920 0229594 188.7522 170.9628 14.31170783700948"
      },
      "geometry": {
        "type": "Point",
        "coordinates": [
          158.3142396601468,
          -51.58770057248441
        ]
      }
    },
    {
      "type": "Feature",
      "properties": {
        "norad_id": 35168,
        "name": "FENGYUN 1C DEB",
        "group": "fengyun-1c-debris",
        "lat": 1.8642796429839656,
        "lon": -112.89487352177295,
        "alt_km": 855.2697409907114,
        "timestamp": "2025-12-22T04:03:39.457017+00:00",
        "meta_object_name": "FENGYUN 1C DEB",
        "meta_object_id": "1999-025DMY",
        "meta_epoch": "2025-12-11T11:53:15.848448",
        "meta_mean_motion": 14.15522112,
        "meta_eccentricity": 0.01260569,
        "meta_inclination": 98.2752,
        "meta_ra_of_asc_node": 237.4634,
        "meta_arg_of_pericenter": 131.2558,
        "meta_mean_anomaly": 229.9558,
        "meta_ephemeris_type": 0,
        "meta_classification_type": "U",
        "meta_norad_cat_id": 35168,
        "meta_element_set_no": 999,
        "meta_rev_at_epoch": 57906,
        "meta_bstar": 0.00034767464,
        "meta_mean_motion_dot": 6.96e-06,
        "meta_mean_motion_ddot": 0,
        "tle_line1": "1 35168U 99025DMY 25345.49532232  .00000696  00000+0  34767-3 0  9997",
        "tle_line2": "2 35168  98.2752 237.4634 0126056 131.2558 229.9558 14.15522112579063"
      },
      "geometry": {
        "type": "Point",
        "coordinates": [
          -112.89487352177295,
          1.8642796429839656
        ]
      }
    },
    {
      "type": "Feature",
      "properties": {
        "norad_id": 35169,
        "name": "FENGYUN 1C DEB",
        "group": "fengyun-1c-debris",
        "lat": 45.277213461512105,
        "lon": 70.00831831424848,
        "alt_km": 629.8841163431125,
        "timestamp": "2025-12-22T04:03:39.457028+00:00",
        "meta_object_name": "FENGYUN 1C DEB",
        "meta_object_id": "1999-025DMZ",
        "meta_epoch": "2025-12-13T21:54:45.837792",
        "meta_mean_motion": 14.5866776,
        "meta_eccentricity": 0.01527117,
        "meta_inclination": 99.1288,
        "meta_ra_of_asc_node": 231.5975,
        "meta_arg_of_pericenter": 104.1831,
        "meta_mean_anomaly": 257.6385,
        "meta_ephemeris_type": 0,
        "meta_classification_type": "U",
        "meta_norad_cat_id": 35169,
        "meta_element_set_no": 999,
        "meta_rev_at_epoch": 65797,
        "meta_bstar": 0.00059843273,
        "meta_mean_motion_dot": 3.218e-05,
        "meta_mean_motion_ddot": 0,
        "tle_line1": "1 35169U 99025DMZ 25347.91303053  .00003218  00000+0  59843-3 0  9999",
        "tle_line2": "2 35169  99.1288 231.5975 0152711 104.1831 257.6385 14.58667760657970"
      },
      "geometry": {
        "type": "Point",
        "coordinates": [
          70.00831831424848,
          45.277213461512105
        ]
      }
    },
    {
      "type": "Feature",
      "properties": {
        "norad_id": 35171,
        "name": "FENGYUN 1C DEB",
        "group": "fengyun-1c-debris",
        "lat": -15.700459900399288,
        "lon": -35.23849679064118,
        "alt_km": 926.7321620000712,
        "timestamp": "2025-12-22T04:03:39.457038+00:00",
        "meta_object_name": "FENGYUN 1C DEB",
        "meta_object_id": "1999-025DNB",
        "meta_epoch": "2025-12-21T16:46:57.851616",
        "meta_mean_motion": 13.95002805,
        "meta_eccentricity": 0.0138279,
        "meta_inclination": 99.0084,
        "meta_ra_of_asc_node": 146.8583,
        "meta_arg_of_pericenter": 294.0757,
        "meta_mean_anomaly": 64.599,
        "meta_ephemeris_type": 0,
        "meta_classification_type": "U",
        "meta_norad_cat_id": 35171,
        "meta_element_set_no": 999,
        "meta_rev_at_epoch": 88683,
        "meta_bstar": 0.0014761,
        "meta_mean_motion_dot": 2.107e-05,
        "meta_mean_motion_ddot": 0,
        "tle_line1": "1 35171U 99025DNB 25355.69928069  .00002107  00000+0  14761-2 0  9991",
        "tle_line2": "2 35171  99.0084 146.8583 0138279 294.0757  64.5990 13.95002805886837"
      },
      "geometry": {
        "type": "Point",
        "coordinates": [
          -35.23849679064118,
          -15.700459900399288
        ]
      }
    },
    {
      "type": "Feature",
      "properties": {
        "norad_id": 35173,
        "name": "FENGYUN 1C DEB",
        "group": "fengyun-1c-debris",
        "lat": 4.317455099929836,
        "lon": 66.6382663679471,
        "alt_km": 1486.887336438489,
        "timestamp": "2025-12-22T04:03:39.457048+00:00",
        "meta_object_name": "FENGYUN 1C DEB",
        "meta_object_id": "1999-025DND",
        "meta_epoch": "2025-12-21T10:04:52.561056",
        "meta_mean_motion": 13.37368293,
        "meta_eccentricity": 0.04908376,
        "meta_inclination": 99.7862,
        "meta_ra_of_asc_node": 66.6618,
        "meta_arg_of_pericenter": 192.6018,
        "meta_mean_anomaly": 166.2462,
        "meta_ephemeris_type": 0,
        "meta_classification_type": "U",
        "meta_norad_cat_id": 35173,
        "meta_element_set_no": 999,
        "meta_rev_at_epoch": 65945,
        "meta_bstar": 0.0016827543,
        "meta_mean_motion_dot": 1.722e-05,
        "meta_mean_motion_ddot": 0,
        "tle_line1": "1 35173U 99025DND 25355.42005279  .00001722  00000+0  16828-2 0  9991",
        "tle_line2": "2 35173  99.7862  66.6618 0490837 192.6018 166.2462 13.37368293659454"
      },
      "geometry": {
        "type": "Point",
        "coordinates": [
          66.6382663679471,
          4.317455099929836
        ]
      }
    },
    {
      "type": "Feature",
      "properties": {
        "norad_id": 35174,
        "name": "FENGYUN 1C DEB",
        "group": "fengyun-1c-debris",
        "lat": -66.01242797993515,
        "lon": -7.317789528558802,
        "alt_km": 656.3760281294526,
        "timestamp": "2025-12-22T04:03:39.457058+00:00",
        "meta_object_name": "FENGYUN 1C DEB",
        "meta_object_id": "1999-025DNE",
        "meta_epoch": "2025-12-13T04:07:25.072608",
        "meta_mean_motion": 14.98877767,
        "meta_eccentricity": 0.01541479,
        "meta_inclination": 98.9697,
        "meta_ra_of_asc_node": 321.54,
        "meta_arg_of_pericenter": 181.4297,
        "meta_mean_anomaly": 178.6503,
        "meta_ephemeris_type": 0,
        "meta_classification_type": "U",
        "meta_norad_cat_id": 35174,
        "meta_element_set_no": 999,
        "meta_rev_at_epoch": 90172,
        "meta_bstar": 0.0023807921,
        "meta_mean_motion_dot": 0.0003695,
        "meta_mean_motion_ddot": 0,
        "tle_line1": "1 35174U 99025DNE 25347.17181797  .00036950  00000+0  23808-2 0  9992",
        "tle_line2": "2 35174  98.9697 321.5400 0154147 181.4297 178.6503 14.98877767901722"
      },
      "geometry": {
        "type": "Point",
        "coordinates": [
          -7.317789528558802,
          -66.01242797993515
        ]
      }
    }
  ]
}